SBSS (USA 216)          
1 37168U 10048A   26068.88624904  .00004946  00000+0  24191-3 0  9993
2 37168  97.7474 312.3885 0082264 184.8326 306.5835 15.15724210837421
STARLINK-30704          
1 57946U 23148M   26068.46642264 -.00000273  00000+0  29040-5 0  9997
2 57946  53.1598 102.4833 0001236  79.3789 280.7351 15.30195527137285
