[{"OBJECT_NAME":"SBSS (USA 216)","OBJECT_ID":"2010-048A","EPOCH":"2026-03-09T21:16:11.917056","MEAN_MOTION":15.1572421,"ECCENTRICITY":0.0082264,"INCLINATION":97.7474,"RA_OF_ASC_NODE":312.3885,"ARG_OF_PERICENTER":184.8326,"MEAN_ANOMALY":306.5835,"EPHEMERIS_TYPE":0,"CLASSIFICATION_TYPE":"U","NORAD_CAT_ID":37168,"ELEMENT_SET_NO":999,"REV_AT_EPOCH":83742,"BSTAR":0.00024191,"MEAN_MOTION_DOT":4.946e-5,"MEAN_MOTION_DDOT":0},{"OBJECT_NAME":"STARLINK-30704","OBJECT_ID":"2023-148M","EPOCH":"2026-03-09T11:11:38.916096","MEAN_MOTION":15.30195527,"ECCENTRICITY":0.00012368,"INCLINATION":53.1598,"RA_OF_ASC_NODE":102.4833,"ARG_OF_PERICENTER":79.3789,"MEAN_ANOMALY":280.7351,"EPHEMERIS_TYPE":0,"CLASSIFICATION_TYPE":"U","NORAD_CAT_ID":57946,"ELEMENT_SET_NO":999,"REV_AT_EPOCH":13728,"BSTAR":2.904023e-6,"MEAN_MOTION_DOT":-2.73e-6,"MEAN_MOTION_DDOT":0}]
